IXPE                    
1 49954U 21121A   24146.58334491  .00006899  00000+0  50088-3 0  9997
2 49954   0.2284 201.1682 0009153 302.1359 254.8328 14.97984496  5749
